{
    "links": {
        "self": "http://www.neowsapp.com/rest/v1/neo/3595929?api_key=iIulBulltgU6a56xZRHN4H3l9WmuAYTsLGpBGhQ2"
    },
    "id": "3595929",
    "neo_reference_id": "3595929",
    "name": "(2012 BZ1)",
    "designation": "2012 BZ1",
    "nasa_jpl_url": "http://ssd.jpl.nasa.gov/sbdb.cgi?sstr=3595929",
    "absolute_magnitude_h": 23.8,
    "estimated_diameter": {
        "kilometers": {
            "estimated_diameter_min": 0.046190746,
            "estimated_diameter_max": 0.1032856481
        },
        "meters": {
            "estimated_diameter_min": 46.1907460282,
            "estimated_diameter_max": 103.2856480504
        },
        "miles": {
            "estimated_diameter_min": 0.0287015901,
            "estimated_diameter_max": 0.0641787064
        },
        "feet": {
            "estimated_diameter_min": 151.544447199,
            "estimated_diameter_max": 338.8636855496
        }
    },
    "is_potentially_hazardous_asteroid": false,
    "close_approach_data": [
        {
            "close_approach_date": "1974-07-08",
            "close_approach_date_full": "1974-Jul-08 05:19",
            "epoch_date_close_approach": 142492740000,
            "relative_velocity": {
                "kilometers_per_second": "24.2480931937",
                "kilometers_per_hour": "87293.1354971497",
                "miles_per_hour": "54240.5596648817"
            },
            "miss_distance": {
                "astronomical": "0.3865541118",
                "lunar": "150.3695494902",
                "kilometers": "57827671.765021866",
                "miles": "35932449.0249831108"
            },
            "orbiting_body": "Earth"
        },
        {
            "close_approach_date": "2012-01-20",
            "close_approach_date_full": "2012-Jan-20 19:06",
            "epoch_date_close_approach": 1327086360000,
            "relative_velocity": {
                "kilometers_per_second": "26.9597233702",
                "kilometers_per_hour": "97055.0041328518",
                "miles_per_hour": "60306.2052068823"
            },
            "miss_distance": {
                "astronomical": "0.0423733785",
                "lunar": "16.4832442365",
                "kilometers": "6338967.168303795",
                "miles": "3938851.551410571"
            },
            "orbiting_body": "Earth"
        },
        {
            "close_approach_date": "2095-01-20",
            "close_approach_date_full": "2095-Jan-20 14:26",
            "epoch_date_close_approach": 3946371960000,
            "relative_velocity": {
                "kilometers_per_second": "26.9742473237",
                "kilometers_per_hour": "97107.2903651785",
                "miles_per_hour": "60338.6938382966"
            },
            "miss_distance": {
                "astronomical": "0.0470552423",
                "lunar": "18.3044892547",
                "kilometers": "7039364.020413901",
                "miles": "4374057.9745217938"
            },
            "orbiting_body": "Earth"
        }
    ],
    "orbital_data": {
        "orbit_id": "5",
        "orbit_determination_date": "2017-04-06 08:51:24",
        "first_observation_date": "2012-01-18",
        "last_observation_date": "2012-01-19",
        "data_arc_in_days": 1,
        "observations_used": 23,
        "orbit_uncertainty": "9",
        "minimum_orbit_intersection": ".0342503",
        "jupiter_tisserand_invariant": "4.597",
        "epoch_osculation": "2455945.5",
        "eccentricity": ".5956257836612083",
        "semi_major_axis": "1.316016718898183",
        "inclination": "37.24640713785075",
        "ascending_node_longitude": "118.9065690106111",
        "orbital_period": "551.4301867668208",
        "perihelion_distance": ".5321632293932005",
        "perihelion_argument": "107.6824898638054",
        "aphelion_distance": "2.099870208403165",
        "perihelion_time": "2456000.896364256986",
        "mean_anomaly": "323.8346038880385",
        "mean_motion": ".6528478284998759",
        "equinox": "J2000",
        "orbit_class": {
            "orbit_class_type": "APO",
            "orbit_class_description": "Near-Earth asteroid orbits which cross the Earth’s orbit similar to that of 1862 Apollo",
            "orbit_class_range": "a (semi-major axis) > 1.0 AU; q (perihelion) < 1.017 AU"
        }
    },
    "is_sentry_object": false
}